GLOBALSTAR M035         
1 25851U 99037A   25207.78450045 -.00000055  00000+0  34010-3 0  9999
2 25851  51.9985 326.6623 0013764  48.4044 108.3343 11.04538582100632
GLOBALSTAR M032         
1 25852U 99037B   25208.08100820 -.00000059  00000+0  23418-3 0  9991
2 25852  51.9937 148.4433 0011937 234.6311 125.3374 11.19062154139307
GLOBALSTAR M051         
1 25853U 99037C   25208.48553722 -.00000066  00000+0  15017-3 0  9993
2 25853  51.9813 303.6802 0000251 228.4105 131.6684 11.42204564137014
GLOBALSTAR M030         
1 25854U 99037D   25207.88989940 -.00000025  00000+0  10555-2 0  9998
2 25854  51.9878 108.6960 0003456 107.4648 252.6547 11.55111075154730
GLOBALSTAR M048         
1 25872U 99041A   25207.63194271 -.00000058  00000+0  33242-3 0  9996
2 25872  51.9338 242.2979 0013673 252.7432 256.2289 11.33858399129450
GLOBALSTAR M026         
1 25873U 99041B   25208.08929054 -.00000022  00000+0  15632-2 0  9995
2 25873  52.0019  83.5201 0002136 359.6771 153.0969 11.06845715153104
GLOBALSTAR M043         
1 25874U 99041C   25207.88530985 -.00000058  00000+0  29945-3 0  9996
2 25874  51.9433 350.9208 0013454  22.8663  99.5369 11.25694571127343
GLOBALSTAR M028         
1 25875U 99041D   25207.87536778 -.00000063  00000+0  23882-3 0  9992
2 25875  51.9629  74.7212 0063301 156.9176 203.4550 12.50584855195144
